COSMOS 2251 DEB         
1 34009U 93036GU  26095.84609493  .00000339  00000+0  13183-3 0  9995
2 34009  74.0350 128.4014 0027445 175.5124   6.8170 14.33324106895803
COSMOS 2251 DEB         
1 34010U 93036GV  26095.28797429  .01170090  00000+0  89032-2 0  9990
2 34010  73.9814  39.2856 0020987 179.9502 180.1727 15.69500582910270
COSMOS 2251 DEB         
1 34011U 93036GW  26095.45660289  .00002475  00000+0  74860-3 0  9997
2 34011  74.0118 119.0140 0037852 182.4214 177.6766 14.42466061895551
COSMOS 2251 DEB         
1 34014U 93036GZ  26095.62868264  .00006497  00000+0  96529-3 0  9996
2 34014  74.0168  58.2648 0038840 174.1861   1.2684 14.74676250909814
COSMOS 2251 DEB         
1 34015U 93036HA  26095.72519164  .00003055  00000+0  62486-3 0  9992
2 34015  74.0238 301.5063 0019365  11.1192  61.5482 14.61158316901952
COSMOS 2251 DEB         
1 34018U 93036HD  26095.59677566  .00000644  00000+0  48462-3 0  9990
2 34018  73.8757 259.1108 0264730 273.9373 161.4171 13.81234818862294
COSMOS 2251 DEB         
1 34019U 93036HE  26095.77332185  .00002134  00000+0  75065-3 0  9991
2 34019  73.9541 200.9318 0061457 354.5332 163.3993 14.34461778891556
COSMOS 2251 DEB         
1 34021U 93036HG  26095.58735931  .00001942  00000+0  50343-3 0  9997
2 34021  74.0349 275.9855 0019571  30.4344  40.8718 14.50369576902804
COSMOS 2251 DEB         
1 34022U 93036HH  26095.68801484  .00000922  00000+0  30551-3 0  9992
2 34022  74.0536  60.8010 0020920 102.6822  74.7109 14.39143679898344
COSMOS 2251 DEB         
1 34023U 93036HJ  26095.57409332  .00001463  00000+0  46414-3 0  9993
2 34023  74.0259  41.0260 0017443 117.2813  62.3287 14.40831122898533
COSMOS 2251 DEB         
1 34024U 93036HK  26095.77734870  .00000541  00000+0  19642-3 0  9993
2 34024  74.0437 106.9593 0020282 137.1228  40.3896 14.35533806896608
COSMOS 2251 DEB         
1 34026U 93036HM  26095.24993484  .00001034  00000+0  85636-3 0  9999
2 34026  73.7655 148.5149 0347902   0.2164  65.1260 13.65532638850814
COSMOS 2251 DEB         
1 34028U 93036HP  26095.61743959  .00000535  00000+0  62708-3 0  9992
2 34028  73.8832 172.6334 0546419 291.2053 190.4120 13.20739428825110
COSMOS 2251 DEB         
1 34031U 93036HS  26095.47949852  .00005499  00000+0  11216-2 0  9991
2 34031  74.0118 278.2250 0021806  10.8259  11.9918 14.61042877902260
COSMOS 2251 DEB         
1 34035U 93036HW  26095.30741765  .00005674  00000+0  13524-2 0  9999
2 34035  74.0623 135.2912 0038687 114.3410  12.7424 14.53507464896156
COSMOS 2251 DEB         
1 34036U 93036HX  26095.60865446  .00066628  00000+0  43758-2 0  9994
2 34036  74.0136 277.3142 0005803 286.3068  73.7484 15.07269191902784
