[{"OBJECT_NAME":"COSMOS 2251 DEB","OBJECT_ID":"1993-036GU","EPOCH":"2026-04-05T20:18:22.601952","MEAN_MOTION":14.33324106,"ECCENTRICITY":0.0027445,"INCLINATION":74.035,"RA_OF_ASC_NODE":128.4014,"ARG_OF_PERICENTER":175.5124,"MEAN_ANOMALY":6.817,"EPHEMERIS_TYPE":0,"CLASSIFICATION_TYPE":"U","NORAD_CAT_ID":34009,"ELEMENT_SET_NO":999,"REV_AT_EPOCH":89580,"BSTAR":0.00013183,"MEAN_MOTION_DOT":3.39e-6,"MEAN_MOTION_DDOT":0},{"OBJECT_NAME":"COSMOS 2251 DEB","OBJECT_ID":"1993-036GV","EPOCH":"2026-04-05T06:54:40.978656","MEAN_MOTION":15.69500582,"ECCENTRICITY":0.0020987,"INCLINATION":73.9814,"RA_OF_ASC_NODE":39.2856,"ARG_OF_PERICENTER":179.9502,"MEAN_ANOMALY":180.1727,"EPHEMERIS_TYPE":0,"CLASSIFICATION_TYPE":"U","NORAD_CAT_ID":34010,"ELEMENT_SET_NO":999,"REV_AT_EPOCH":91027,"BSTAR":0.0089032,"MEAN_MOTION_DOT":0.0117009,"MEAN_MOTION_DDOT":0},{"OBJECT_NAME":"COSMOS 2251 DEB","OBJECT_ID":"1993-036GW","EPOCH":"2026-04-05T10:57:30.489696","MEAN_MOTION":14.42466061,"ECCENTRICITY":0.0037852,"INCLINATION":74.0118,"RA_OF_ASC_NODE":119.014,"ARG_OF_PERICENTER":182.4214,"MEAN_ANOMALY":177.6766,"EPHEMERIS_TYPE":0,"CLASSIFICATION_TYPE":"U","NORAD_CAT_ID":34011,"ELEMENT_SET_NO":999,"REV_AT_EPOCH":89555,"BSTAR":0.0007485989,"MEAN_MOTION_DOT":2.475e-5,"MEAN_MOTION_DDOT":0},{"OBJECT_NAME":"COSMOS 2251 DEB","OBJECT_ID":"1993-036GZ","EPOCH":"2026-04-05T15:05:18.180096","MEAN_MOTION":14.7467625,"ECCENTRICITY":0.003884,"INCLINATION":74.0168,"RA_OF_ASC_NODE":58.2648,"ARG_OF_PERICENTER":174.1861,"MEAN_ANOMALY":1.2684,"EPHEMERIS_TYPE":0,"CLASSIFICATION_TYPE":"U","NORAD_CAT_ID":34014,"ELEMENT_SET_NO":999,"REV_AT_EPOCH":90981,"BSTAR":0.00096529,"MEAN_MOTION_DOT":6.497e-5,"MEAN_MOTION_DDOT":0},{"OBJECT_NAME":"COSMOS 2251 DEB","OBJECT_ID":"1993-036HA","EPOCH":"2026-04-05T17:24:16.557696","MEAN_MOTION":14.61158316,"ECCENTRICITY":0.0019365,"INCLINATION":74.0238,"RA_OF_ASC_NODE":301.5063,"ARG_OF_PERICENTER":11.1192,"MEAN_ANOMALY":61.5482,"EPHEMERIS_TYPE":0,"CLASSIFICATION_TYPE":"U","NORAD_CAT_ID":34015,"ELEMENT_SET_NO":999,"REV_AT_EPOCH":90195,"BSTAR":0.00062486,"MEAN_MOTION_DOT":3.055e-5,"MEAN_MOTION_DDOT":0},{"OBJECT_NAME":"COSMOS 2251 DEB","OBJECT_ID":"1993-036HD","EPOCH":"2026-04-05T14:19:21.417024","MEAN_MOTION":13.81234818,"ECCENTRICITY":0.026473,"INCLINATION":73.8757,"RA_OF_ASC_NODE":259.1108,"ARG_OF_PERICENTER":273.9373,"MEAN_ANOMALY":161.4171,"EPHEMERIS_TYPE":0,"CLASSIFICATION_TYPE":"U","NORAD_CAT_ID":34018,"ELEMENT_SET_NO":999,"REV_AT_EPOCH":86229,"BSTAR":0.00048462,"MEAN_MOTION_DOT":6.44e-6,"MEAN_MOTION_DDOT":0},{"OBJECT_NAME":"COSMOS 2251 DEB","OBJECT_ID":"1993-036HE","EPOCH":"2026-04-05T18:33:35.007840","MEAN_MOTION":14.34461778,"ECCENTRICITY":0.0061457,"INCLINATION":73.9541,"RA_OF_ASC_NODE":200.9318,"ARG_OF_PERICENTER":354.5332,"MEAN_ANOMALY":163.3993,"EPHEMERIS_TYPE":0,"CLASSIFICATION_TYPE":"U","NORAD_CAT_ID":34019,"ELEMENT_SET_NO":999,"REV_AT_EPOCH":89155,"BSTAR":0.00075065,"MEAN_MOTION_DOT":2.134e-5,"MEAN_MOTION_DDOT":0},{"OBJECT_NAME":"COSMOS 2251 DEB","OBJECT_ID":"1993-036HG","EPOCH":"2026-04-05T14:05:47.844384","MEAN_MOTION":14.50369576,"ECCENTRICITY":0.0019571,"INCLINATION":74.0349,"RA_OF_ASC_NODE":275.9855,"ARG_OF_PERICENTER":30.4344,"MEAN_ANOMALY":40.8718,"EPHEMERIS_TYPE":0,"CLASSIFICATION_TYPE":"U","NORAD_CAT_ID":34021,"ELEMENT_SET_NO":999,"REV_AT_EPOCH":90280,"BSTAR":0.00050343,"MEAN_MOTION_DOT":1.942e-5,"MEAN_MOTION_DDOT":0},{"OBJECT_NAME":"COSMOS 2251 DEB","OBJECT_ID":"1993-036HH","EPOCH":"2026-04-05T16:30:44.482176","MEAN_MOTION":14.39143679,"ECCENTRICITY":0.002092,"INCLINATION":74.0536,"RA_OF_ASC_NODE":60.801,"ARG_OF_PERICENTER":102.6822,"MEAN_ANOMALY":74.7109,"EPHEMERIS_TYPE":0,"CLASSIFICATION_TYPE":"U","NORAD_CAT_ID":34022,"ELEMENT_SET_NO":999,"REV_AT_EPOCH":89834,"BSTAR":0.00030551,"MEAN_MOTION_DOT":9.22e-6,"MEAN_MOTION_DDOT":0},{"OBJECT_NAME":"COSMOS 2251 DEB","OBJECT_ID":"1993-036HJ","EPOCH":"2026-04-05T13:46:41.662848","MEAN_MOTION":14.40831122,"ECCENTRICITY":0.0017443,"INCLINATION":74.0259,"RA_OF_ASC_NODE":41.026,"ARG_OF_PERICENTER":117.2813,"MEAN_ANOMALY":62.3287,"EPHEMERIS_TYPE":0,"CLASSIFICATION_TYPE":"U","NORAD_CAT_ID":34023,"ELEMENT_SET_NO":999,"REV_AT_EPOCH":89853,"BSTAR":0.00046414,"MEAN_MOTION_DOT":1.463e-5,"MEAN_MOTION_DDOT":0},{"OBJECT_NAME":"COSMOS 2251 DEB","OBJECT_ID":"1993-036HK","EPOCH":"2026-04-05T18:39:22.927680","MEAN_MOTION":14.35533806,"ECCENTRICITY":0.0020282,"INCLINATION":74.0437,"RA_OF_ASC_NODE":106.9593,"ARG_OF_PERICENTER":137.1228,"MEAN_ANOMALY":40.3896,"EPHEMERIS_TYPE":0,"CLASSIFICATION_TYPE":"U","NORAD_CAT_ID":34024,"ELEMENT_SET_NO":999,"REV_AT_EPOCH":89660,"BSTAR":0.00019642,"MEAN_MOTION_DOT":5.41e-6,"MEAN_MOTION_DDOT":0},{"OBJECT_NAME":"COSMOS 2251 DEB","OBJECT_ID":"1993-036HM","EPOCH":"2026-04-05T05:59:54.370176","MEAN_MOTION":13.65532638,"ECCENTRICITY":0.0347902,"INCLINATION":73.7655,"RA_OF_ASC_NODE":148.5149,"ARG_OF_PERICENTER":0.2164,"MEAN_ANOMALY":65.126,"EPHEMERIS_TYPE":0,"CLASSIFICATION_TYPE":"U","NORAD_CAT_ID":34026,"ELEMENT_SET_NO":999,"REV_AT_EPOCH":85081,"BSTAR":0.00085636,"MEAN_MOTION_DOT":1.034e-5,"MEAN_MOTION_DDOT":0},{"OBJECT_NAME":"COSMOS 2251 DEB","OBJECT_ID":"1993-036HP","EPOCH":"2026-04-05T14:49:06.780576","MEAN_MOTION":13.20739428,"ECCENTRICITY":0.0546419,"INCLINATION":73.8832,"RA_OF_ASC_NODE":172.6334,"ARG_OF_PERICENTER":291.2053,"MEAN_ANOMALY":190.412,"EPHEMERIS_TYPE":0,"CLASSIFICATION_TYPE":"U","NORAD_CAT_ID":34028,"ELEMENT_SET_NO":999,"REV_AT_EPOCH":82511,"BSTAR":0.00062708,"MEAN_MOTION_DOT":5.35e-6,"MEAN_MOTION_DDOT":0},{"OBJECT_NAME":"COSMOS 2251 DEB","OBJECT_ID":"1993-036HS","EPOCH":"2026-04-05T11:30:28.672128","MEAN_MOTION":14.61042877,"ECCENTRICITY":0.00218062,"INCLINATION":74.0118,"RA_OF_ASC_NODE":278.225,"ARG_OF_PERICENTER":10.8259,"MEAN_ANOMALY":11.9918,"EPHEMERIS_TYPE":0,"CLASSIFICATION_TYPE":"U","NORAD_CAT_ID":34031,"ELEMENT_SET_NO":999,"REV_AT_EPOCH":90226,"BSTAR":0.001121585,"MEAN_MOTION_DOT":5.499e-5,"MEAN_MOTION_DDOT":0},{"OBJECT_NAME":"COSMOS 2251 DEB","OBJECT_ID":"1993-036HW","EPOCH":"2026-04-05T07:22:40.884960","MEAN_MOTION":14.53507464,"ECCENTRICITY":0.00386877,"INCLINATION":74.0623,"RA_OF_ASC_NODE":135.2912,"ARG_OF_PERICENTER":114.341,"MEAN_ANOMALY":12.7424,"EPHEMERIS_TYPE":0,"CLASSIFICATION_TYPE":"U","NORAD_CAT_ID":34035,"ELEMENT_SET_NO":999,"REV_AT_EPOCH":89615,"BSTAR":0.0013523559,"MEAN_MOTION_DOT":5.674e-5,"MEAN_MOTION_DDOT":0},{"OBJECT_NAME":"COSMOS 2251 DEB","OBJECT_ID":"1993-036HX","EPOCH":"2026-04-05T14:36:27.745344","MEAN_MOTION":15.07269191,"ECCENTRICITY":0.0005803,"INCLINATION":74.0136,"RA_OF_ASC_NODE":277.3142,"ARG_OF_PERICENTER":286.3068,"MEAN_ANOMALY":73.7484,"EPHEMERIS_TYPE":0,"CLASSIFICATION_TYPE":"U","NORAD_CAT_ID":34036,"ELEMENT_SET_NO":999,"REV_AT_EPOCH":90278,"BSTAR":0.0043758,"MEAN_MOTION_DOT":0.00066628,"MEAN_MOTION_DDOT":0}]
